IRIDIUM 119             
1 42959U 17061E   25281.33211612  .00000049  00000+0  10266-4 0  9992
2 42959  86.3960 130.5628 0002391  89.4544 270.6925 14.34218421418719
IRIDIUM 107             
1 42960U 17061F   25281.28137537  .00000132  00000+0  40038-4 0  9994
2 42960  86.3959 130.6038 0002532  81.6023 278.5460 14.34217983418711
IRIDIUM 132             
1 42961U 17061G   25281.49702229  .00000328  00000+0  11013-3 0  9991
2 42961  86.3955 130.4947 0002212  84.2772 275.8676 14.34219052418741
IRIDIUM 136             
1 42962U 17061H   25281.87757817  .00000323  00000+0  10810-3 0  9996
2 42962  86.3958 130.3412 0002303  87.1071 273.0388 14.34217966418816
IRIDIUM 139             
1 42963U 17061J   25281.81415496  .00000327  00000+0  10955-3 0  9999
2 42963  86.3959 130.4256 0002262  80.9298 279.2154 14.34218238418813
IRIDIUM 125             
1 42964U 17061K   25281.52239221  .00000280  00000+0  92853-4 0  9994
2 42964  86.3964 130.6038 0002702  85.7299 274.4206 14.34217445418783
IRIDIUM 135             
1 43070U 17083A   25281.49651709  .00000325  00000+0  10898-3 0  9990
2 43070  86.3935  67.2163 0001888  91.9226 268.2186 14.34217161408071
IRIDIUM 138             
1 43071U 17083B   25281.87069998  .00000382  00000+0  12928-3 0  9995
2 43071  86.3927  66.7160 0002446 100.9899 259.1572 14.34226199408116
